{
  "norad_id": 59214,
  "name": "STARLINK-31604",
  "history": [
    {
      "epoch": "2026-03-28T15:40:04.702944Z",
      "apogee_km": 476.10918969247086,
      "perigee_km": 474.3613056344275,
      "latitude_deg": 4.913302768552747e-06,
      "longitude_deg": 6.106611442263315,
      "height_km": 476.2758387204081,
      "semi_major_axis_km": 6853.372247663449,
      "eccentricity": 0.00012752,
      "inclination_deg": 53.1608,
      "raan_deg": 67.1964,
      "arg_perigee_deg": 99.3789,
      "mean_anomaly_deg": 260.7356,
      "mean_motion_rev_day": 15.30193242
    },
    {
      "epoch": "2026-03-29T04:12:30.267648Z",
      "apogee_km": 476.0802221860813,
      "perigee_km": 474.3833280773588,
      "latitude_deg": -5.480490041389521e-05,
      "longitude_deg": 175.0583299546072,
      "height_km": 476.27021344855086,
      "semi_major_axis_km": 6853.36877513172,
      "eccentricity": 0.0001238,
      "inclination_deg": 53.1609,
      "raan_deg": 64.7697,
      "arg_perigee_deg": 99.5111,
      "mean_anomaly_deg": 260.6029,
      "mean_motion_rev_day": 15.30194405
    },
    {
      "epoch": "2026-03-30T02:09:15.105888Z",
      "apogee_km": 476.1535935310567,
      "perigee_km": 474.30592585264367,
      "latitude_deg": 3.4717820764030133e-06,
      "longitude_deg": -159.27713360946217,
      "height_km": 476.2463639005095,
      "semi_major_axis_km": 6853.366759691849,
      "eccentricity": 0.0001348,
      "inclination_deg": 53.1611,
      "raan_deg": 60.5223,
      "arg_perigee_deg": 97.3701,
      "mean_anomaly_deg": 262.7453,
      "mean_motion_rev_day": 15.3019508
    },
    {
      "epoch": "2026-03-30T14:41:40.577280Z",
      "apogee_km": 476.1701906103435,
      "perigee_km": 474.286611663495,
      "latitude_deg": 2.31211596487144e-06,
      "longitude_deg": 9.676719044607012,
      "height_km": 476.2862744884927,
      "semi_major_axis_km": 6853.365401136919,
      "eccentricity": 0.00013742,
      "inclination_deg": 53.1616,
      "raan_deg": 58.0973,
      "arg_perigee_deg": 99.7658,
      "mean_anomaly_deg": 260.3498,
      "mean_motion_rev_day": 15.30195535
    }
  ]
}